#dP2022  7 27  0  0  0.00000000      96 __u+U ITR14 FIT  IAC
## 2220 259200.00000000   900.00000000 59787 0.0000000000000
+  125   C01C02C03C04C06C07C08C09C10C11C12C13C14C16C19C20C21
+        C22C23C24C25C26C27C28C29C30C32C33C34C35C36C37C38C39
+        C40C41C42C43C44C45C46C60E01E02E03E04E05E07E08E09E10
+        E11E12E13E14E15E18E19E21E24E25E26E27E30E31E33E34E36
+        G01G02G03G04G05G06G07G08G09G10G11G12G13G14G15G16G17
+        G18G19G20G21G22G23G24G25G26G27G28G29G30G31G32J02J03
+        J07R01R02R03R04R05R06R07R08R09R10R11R12R13R14R15R17
+        R18R19R20R21R23R24  0  0  0  0  0  0  0  0  0  0  0
++        17 16 17 17  9  9  9  9  9  9  9  8 11  9  7  7  7
++         7  7  7  7  7  7  7  7  7  7  7  7  7  7  7  8  8
++         8  7  7  7  7  7  7 17  4  4  4  4  4  4  4  5  5
++         4  4  5  5  4  4  4  5  5  4  4  4  4  5  5  4  4
++         3  4  4  4  4  3  4  4  4  3  3  3  4  4  4  4  3
++         4  3  4  3  4  3  4  4  4  4  4  4  4  4  3  8  8
++        17  7  6  6  6  6 15  5  6  6 15  6  6  7  6  6  6
++         6  7  7  6 15  6  0  0  0  0  0  0  0  0  0  0  0
%c M  cc GPS ccc cccc cccc cccc cccc ccccc ccccc ccccc ccccc
%c cc cc ccc ccc cccc cccc cccc cccc ccccc ccccc ccccc ccccc
%f  0.0000000  0.000000000  0.00000000000  0.000000000000000
%f  0.0000000  0.000000000  0.00000000000  0.000000000000000
%i    0    0    0    0      0      0      0      0         0
%i    0    0    0    0      0      0      0      0         0
/* INFORMATION & ANALYSIS CENTER (IAC)            RAPID DATA
/* S/V CLOCKS ARE ALIGNED TO GNSS TIME                      
/* G:C1WC2W R:C1PC2P E:C1XC5X C:C2IC6I J:C1CC2S             
/* PCV:IGS14_2215 OL/AL:FES2004  NONE     YN ORB:CoN CLK:CoN
*  2022 07 27 22 30  0.00000000
PC01 -34339.920979  24488.015531   -126.382503    468.764080
PC02   4414.687151  41864.677018  -1511.309658   -241.657009
PC03 -14771.686865  39458.792920   -594.648999   -464.688941
PC04 -39585.167875  14531.643486    348.762321   -234.522448
PC06  -3032.193146  37257.984731 -19249.036590    485.101362
PC07  -9801.217918  25732.623275  31939.237211   -486.757802
PC08 -18261.541855  34733.411196 -15655.981164    420.444991
PC09   1901.390237  40101.136291 -11639.883879   -914.286419
PC10  -1759.564558  27035.222465  32595.674672    114.488395
PC11  11469.393687  25320.438527  -2629.587578   -504.633615
PC12   -614.917214  24035.268378  14215.523488   -566.420218
PC13 -13211.849690  35091.003718 -19438.643204     36.208833
PC14  14868.866866  14734.304057 -18468.044085    561.392733
PC16  -4393.000209  35737.821613 -21510.891116    143.329200
PC19 -22967.453768 -10898.525475  11503.976410   -302.414358
PC20  -6186.712369 -15998.424095  22014.676842   -964.419553
PC21 -15467.222943  11797.378481 -19986.232595    -68.605950
PC22 -27188.352589    717.852191  -6179.532421   -963.352219
PC23  21070.964890  -7686.533006  16617.164978   -952.382395
PC24  -4416.120608  23215.418182  14858.021882   -967.758289
PC25  12908.500895   9919.695997  22662.482616   -701.397611
PC26 -16617.227663  22441.610900   -138.058700    703.457000
PC27   7359.845599 -18371.106093 -19701.100366    760.840835
PC28  16678.454911    -16.569477 -22375.589995     94.956860
PC29 -17142.823918 -18702.005935  11609.597279    587.469800
PC30  -6843.011902 -26306.046761  -6366.294539    501.529139
PC32  15479.768432 -11900.789630  19954.809082   -159.789755
PC33  23008.085362  10804.413059 -11539.332761   -268.643679
PC34   7565.630992  26318.390153   5312.023802   -349.269933
PC35 -17118.662138   -757.274230  22018.298166    385.533511
PC36 -12271.343258 -10701.477767 -22631.818305   -970.992755
PC37  17743.943320 -21485.401180   1330.640963   -922.681220
PC38 -22381.141309  35008.296413  -7638.413841     13.098820
PC39  -7043.614601  32038.414981 -26348.724206     -0.145228
PC40 -15031.029208  19211.387395  34337.669628     -1.303225
PC41  27317.942187   -523.398712   5738.241995   -116.360253
PC42   5003.436984  16057.967507 -22231.685447    -13.034857
PC43  16929.928241  19270.543440 -10981.254724      5.343656
PC44  -6941.829506  18484.625457  19694.817027    737.861571
PC45 -21053.703792   8095.009739 -16432.497742    820.001412
PC46   3008.917994 -22587.647429 -16075.834960   -455.027784
PC60   7316.833396  41534.605000    219.950220     -0.340133
PE01  24150.432004 -15379.312172  -7504.153602   -523.441964
PE02 -24046.384526  15469.355339   7683.365892    314.671821
PE03 -14142.824093  10332.500667 -23861.184087   -583.430354
PE04  -4809.654633 -21358.998873  19926.289842  -1080.751440
PE05 -25200.387875  -7026.743045 -13839.139478   -158.970748
PE07  21437.605295  20014.333653  -4050.909964   -691.350068
PE08   5131.469917  21301.985558 -19906.377497   -571.090074
PE09 -21479.627020 -19936.508112   4101.943649   -602.554764
PE10  -3780.917790 -27233.497236  10937.689022   -503.460046
PE11  -9931.569218 -20308.673024  19094.818947   2854.370060
PE12   2704.583887 -29441.062600   1565.330639    -84.560136
PE13   9546.195389  20893.582925 -18672.015663    429.999649
PE14  11745.789981  23759.589383   9325.110951  -1766.571564
PE15  -2734.956865  29440.362979  -1412.290662    730.577841
PE18    747.421591 -22142.777510 -18615.871876  -1163.752801
PE19  16169.284212  -8127.211244  23431.386227  -4972.616599
PE21  27581.595385  -3992.165716   9983.940426   -748.408266
PE24 -14454.717395 -11301.602346 -23237.600613   -748.534067
PE25 -27516.173994   3792.532683 -10218.485277   -582.547287
PE26  16375.286472   -844.532203 -24647.098444  -1426.921070
PE27  15499.165463  10524.041632  22924.592004   -354.744188
PE30  -6629.539318  18847.962213  21839.968079   -707.083388
PE31   5588.426120 -18701.134221 -22240.868617   -500.652350
PE33  13338.403574 -20573.878148 -16588.327545   -454.328162
PE34 -13221.028143  20771.502135  16425.390629   -488.003345
PE36 -16117.142527   -165.588709  24821.116378   -408.335945
PG01 -13394.587368  18585.511000  12827.044664    313.107349
PG02  14962.400482   -253.765496 -21334.730695   -650.531728
PG03 -21691.192700  12611.494899  -8653.397703   -318.175820
PG04 -12846.506076   8476.398524 -21643.784685   -140.638261
PG05  25673.372346  -5138.760791  -5075.128495    -90.720179
PG06   7811.525124  17910.229546 -17895.894636    402.432568
PG07  -4938.679172  25783.921789   1757.263345    317.544836
PG08 -18500.921514   1213.424174  19106.062367    -78.013216
PG09  -1892.898543  17410.404129 -20030.296234   -314.590627
PG10  -6998.561210 -13456.971820  21970.665656   -507.256472
PG11  14184.186169   5462.373082 -21784.965795    -10.369781
PG12  23652.756596 -10046.810531  -6759.927039   -253.124350
PG13  20236.752375   9203.683148  14510.006720    356.738921
PG14   4815.695683  14660.721810  21624.124789   -111.087619
PG15  18592.881542  -3409.773055  18349.365701    -41.995277
PG16 -24911.385994  -1886.989944  -9935.331733   -517.674974
PG17  11273.007028  21981.821386  10110.981956    641.828955
PG18   5508.081481 -25861.963935   1625.800167    100.189985
PG19  17250.558573  20362.948628    212.440397    189.415201
PG20  21029.160148   2597.858543 -15868.341061    499.650963
PG21 -15473.582839   9306.687684  19862.123973    160.899592
PG22 -18430.743191 -19183.113609  -1272.130865    299.707845
PG23   5022.153454 -16318.980735  20302.888533    -34.728824
PG24  14199.112058 -15335.146597  15839.382078    185.347336
PG25  13112.654707 -16252.422442 -16539.134606    354.155160
PG26 -18976.649570  -6817.441172 -17529.261422    220.600514
PG27 -21988.440698 -10896.966920  10425.483818    220.860832
PG28  13829.324692  11329.296856  20076.181537    337.780778
PG29   2962.677081 -16919.501682 -20285.805844   -537.516940
PG30   2447.294698  23887.449641  11161.569775   -534.875090
PG31  -9948.155055 -15484.747185 -19114.881712   -187.426293
PG32 -14748.482555 -20931.347057   7566.935143   -187.761688
PJ02 -31398.478016  26847.949258  13299.636102     -2.261328
PJ03 -25119.997108  26827.124062  25799.564245     -0.299097
PJ07 -25400.323579  33657.220790    -35.981894     -0.037377
PR01 -12026.083534 -12840.308950  18464.795921     12.175030
PR02 -23947.680903  -8757.370125   1525.497534    525.329970
PR03 -20622.452302    743.077572 -14989.273715     60.924199
PR04  -5802.269790   9370.669095 -22977.648248    152.050573
PR05  12077.490215  13026.688974 -18285.312878     96.929574
PR06  24381.863373   7449.109581   -413.416492    -61.393394
PR07  20080.083881  -1243.027221  15689.370226     38.489025
PR08   5626.688120  -9605.111228  23004.964770    -66.424721
PR09  14987.485583    -38.794656  20684.792032     68.078415
PR10  20097.378036 -12494.646552   9429.545167    -84.573433
PR11  14575.734594 -19097.249631  -8584.534913     32.121470
PR12   -435.450805 -13569.410083 -21560.281387     19.559836
PR13 -13885.759530  -1092.907641 -21376.114686    -25.079438
PR14 -20221.975542  13371.977629  -7880.303483     24.737846
PR15 -14134.340009  18993.919706   9509.664555     94.483752
PR17  -9331.037127   6258.055725  22906.375382    547.257692
PR18  -2423.936183  20913.401216  14377.963941     34.706054
PR19   4534.953164  25101.991197   -547.427412   -197.870272
PR20  10704.190560  13694.986094 -18652.765666    -75.422034
PR21   8834.751707  -7751.086217 -22641.124317   -320.849803
PR23  -7317.759734 -23667.304408   6058.216558    -49.242643
PR24 -11513.798233 -12691.982960  18895.891707    105.824722
EOF
